[{"OBJECT_NAME":"STARLINK-6206","OBJECT_ID":"2023-083A","EPOCH":"2026-03-09T01:50:48.375456","MEAN_MOTION":15.02539468,"ECCENTRICITY":0.00014325,"INCLINATION":43.0017,"RA_OF_ASC_NODE":85.5011,"ARG_OF_PERICENTER":272.9403,"MEAN_ANOMALY":87.1275,"EPHEMERIS_TYPE":0,"CLASSIFICATION_TYPE":"U","NORAD_CAT_ID":56876,"ELEMENT_SET_NO":999,"REV_AT_EPOCH":15157,"BSTAR":-2.0459368e-5,"MEAN_MOTION_DOT":-4.8e-6,"MEAN_MOTION_DDOT":0},{"OBJECT_NAME":"CZ-4 DEB","OBJECT_ID":"2007-042E","EPOCH":"2026-03-09T05:05:13.801056","MEAN_MOTION":14.89671222,"ECCENTRICITY":0.00640153,"INCLINATION":98.6325,"RA_OF_ASC_NODE":167.9775,"ARG_OF_PERICENTER":42.5531,"MEAN_ANOMALY":318.0619,"EPHEMERIS_TYPE":0,"CLASSIFICATION_TYPE":"U","NORAD_CAT_ID":35397,"ELEMENT_SET_NO":999,"REV_AT_EPOCH":97028,"BSTAR":0.0012361728,"MEAN_MOTION_DOT":0.00012236,"MEAN_MOTION_DDOT":0}]
